ONEWEB-0311             
1 49097U 21075Y   25135.41807121  .00000024  00000+0  29088-4 0  9990
2 49097  87.9053  85.0620 0002443  78.3723 281.7682 13.17650026181248
ONEWEB-0312             
1 49098U 21075Z   25136.34448410 -.00000641  00000+0 -16853-2 0  9997
2 49098  87.9056  84.9075 0002443  85.6236 274.5175 13.17644740182327
ONEWEB-0313             
1 49099U 21075AA  25136.34940271  .00000094  00000+0  20908-3 0  9997
2 49099  87.9055  84.9225 0002101  77.0481 283.0885 13.17646709182333
ONEWEB-0314             
1 49100U 21075AB  25136.39172667  .00000123  00000+0  28329-3 0  9999
2 49100  87.9050  84.8471 0002435  84.3518 275.7891 13.17651266182301
ONEWEB-0315             
1 49101U 21075AC  25135.55634706  .00000145  00000+0  36837-3 0  9991
2 49101  87.8877  69.7454 0002266  72.3503 287.7873 13.12443636183011
ONEWEB-0316             
1 49102U 21075AD  25136.32541658  .00000067  00000+0  13629-3 0  9998
2 49102  87.9161  54.3413 0002110  74.9149 285.2216 13.18684129185911
ONEWEB-0317             
1 49103U 21075AE  25135.32114121 -.00000005  00000+0 -49097-4 0  9992
2 49103  87.8876  69.8068 0001672 105.5234 254.6079 13.12447306183002
ONEWEB-0318             
1 49104U 21075AF  25136.32225182  .00000005  00000+0 -20410-4 0  9991
2 49104  87.9159  54.3271 0002193  74.4415 285.6959 13.18689303185865
